{
  "type": "FeatureCollection",
  "features": [
    {
      "type": "Feature",
      "properties": {
        "norad_id": 66174,
        "name": "HTV-X1",
        "group": "stations",
        "lat": 50.466999701261365,
        "lon": -133.29021372166147,
        "alt_km": 413.3080677250664,
        "timestamp": "2025-12-10T14:53:35.962161+00:00",
        "meta_object_name": "HTV-X1",
        "meta_object_id": "2025-241A",
        "meta_epoch": "2025-12-10T03:42:55.481184",
        "meta_mean_motion": 15.49465664,
        "meta_eccentricity": 0.0003395,
        "meta_inclination": 51.6306,
        "meta_ra_of_asc_node": 155.2782,
        "meta_arg_of_pericenter": 228.7876,
        "meta_mean_anomaly": 131.282,
        "meta_ephemeris_type": 0,
        "meta_classification_type": "U",
        "meta_norad_cat_id": 66174,
        "meta_element_set_no": 999,
        "meta_rev_at_epoch": 51,
        "meta_bstar": 0.00027248017,
        "meta_mean_motion_dot": 0.00014837,
        "meta_mean_motion_ddot": 0,
        "tle_line1": "1 66174U 25241A   25344.15480881  .00014837  00000+0  27248-3 0  9999",
        "tle_line2": "2 66174  51.6306 155.2782 0003395 228.7876 131.2820 15.49465664   510"
      },
      "geometry": {
        "type": "Point",
        "coordinates": [
          -133.29021372166147,
          50.466999701261365
        ]
      }
    },
    {
      "type": "Feature",
      "properties": {
        "norad_id": 66515,
        "name": "SZ-21 MODULE",
        "group": "stations",
        "lat": -3.927580246975046,
        "lon": 24.513545079903412,
        "alt_km": 382.1155930769173,
        "timestamp": "2025-12-10T14:53:35.962175+00:00",
        "meta_object_name": "SZ-21 MODULE",
        "meta_object_id": "2025-246C",
        "meta_epoch": "2025-12-10T04:10:45.552576",
        "meta_mean_motion": 15.62287681,
        "meta_eccentricity": 0.00063037,
        "meta_inclination": 41.4772,
        "meta_ra_of_asc_node": 31.6946,
        "meta_arg_of_pericenter": 246.4394,
        "meta_mean_anomaly": 113.5783,
        "meta_ephemeris_type": 0,
        "meta_classification_type": "U",
        "meta_norad_cat_id": 66515,
        "meta_element_set_no": 999,
        "meta_rev_at_epoch": 404,
        "meta_bstar": 0.00037412721,
        "meta_mean_motion_dot": 0.00033821,
        "meta_mean_motion_ddot": 0,
        "tle_line1": "1 66515U 25246C   25344.17413834  .00033821  00000+0  37413-3 0  9998",
        "tle_line2": "2 66515  41.4772  31.6946 0006303 246.4394 113.5783 15.62287681  4045"
      },
      "geometry": {
        "type": "Point",
        "coordinates": [
          24.513545079903412,
          -3.927580246975046
        ]
      }
    },
    {
      "type": "Feature",
      "properties": {
        "norad_id": 66645,
        "name": "SHENZHOU-22",
        "group": "stations",
        "lat": 38.135139777027916,
        "lon": 146.82101169683693,
        "alt_km": 385.01734927803227,
        "timestamp": "2025-12-10T14:53:35.962190+00:00",
        "meta_object_name": "SHENZHOU-22",
        "meta_object_id": "2025-272A",
        "meta_epoch": "2025-12-10T06:43:57.761760",
        "meta_mean_motion": 15.59014677,
        "meta_eccentricity": 0.00088021,
        "meta_inclination": 41.4682,
        "meta_ra_of_asc_node": 31.6356,
        "meta_arg_of_pericenter": 10.5172,
        "meta_mean_anomaly": 349.5849,
        "meta_ephemeris_type": 0,
        "meta_classification_type": "U",
        "meta_norad_cat_id": 66645,
        "meta_element_set_no": 999,
        "meta_rev_at_epoch": 26357,
        "meta_bstar": 0.00043406543,
        "meta_mean_motion_dot": 0.00034646,
        "meta_mean_motion_ddot": 0,
        "tle_line1": "1 66645U 25272A   25344.28052965  .00034646  00000+0  43407-3 0  9993",
        "tle_line2": "2 66645  41.4682  31.6356 0008802  10.5172 349.5849 15.59014677263572"
      },
      "geometry": {
        "type": "Point",
        "coordinates": [
          146.82101169683693,
          38.135139777027916
        ]
      }
    },
    {
      "type": "Feature",
      "properties": {
        "norad_id": 66664,
        "name": "SOYUZ-MS 28",
        "group": "stations",
        "lat": 50.46700039672963,
        "lon": -133.29020886774288,
        "alt_km": 413.3080675665051,
        "timestamp": "2025-12-10T14:53:35.962210+00:00",
        "meta_object_name": "SOYUZ-MS 28",
        "meta_object_id": "2025-275A",
        "meta_epoch": "2025-12-10T03:42:55.481184",
        "meta_mean_motion": 15.49465664,
        "meta_eccentricity": 0.0003395,
        "meta_inclination": 51.6306,
        "meta_ra_of_asc_node": 155.2782,
        "meta_arg_of_pericenter": 228.7876,
        "meta_mean_anomaly": 131.282,
        "meta_ephemeris_type": 0,
        "meta_classification_type": "U",
        "meta_norad_cat_id": 66664,
        "meta_element_set_no": 999,
        "meta_rev_at_epoch": 128,
        "meta_bstar": 0.00027248017,
        "meta_mean_motion_dot": 0.00014837,
        "meta_mean_motion_ddot": 0,
        "tle_line1": "1 66664U 25275A   25344.15480881  .00014837  00000+0  27248-3 0  9990",
        "tle_line2": "2 66664  51.6306 155.2782 0003395 228.7876 131.2820 15.49465664  1289"
      },
      "geometry": {
        "type": "Point",
        "coordinates": [
          -133.29020886774288,
          50.46700039672963
        ]
      }
    },
    {
      "type": "Feature",
      "properties": {
        "norad_id": 66906,
        "name": "1998-067XS",
        "group": "stations",
        "lat": 50.09183975562173,
        "lon": -98.39059242711568,
        "alt_km": 408.72958582409865,
        "timestamp": "2025-12-10T14:53:35.962220+00:00",
        "meta_object_name": "1998-067XS",
        "meta_object_id": "1998-067XS",
        "meta_epoch": "2025-12-10T00:31:58.659744",
        "meta_mean_motion": 15.50350034,
        "meta_eccentricity": 0.0003912,
        "meta_inclination": 51.6303,
        "meta_ra_of_asc_node": 155.8936,
        "meta_arg_of_pericenter": 190.7132,
        "meta_mean_anomaly": 169.3774,
        "meta_ephemeris_type": 0,
        "meta_classification_type": "U",
        "meta_norad_cat_id": 66906,
        "meta_element_set_no": 999,
        "meta_rev_at_epoch": 119,
        "meta_bstar": 0.00063423893,
        "meta_mean_motion_dot": 0.00036365,
        "meta_mean_motion_ddot": 0,
        "tle_line1": "1 66906U 98067XS  25344.02220671  .00036365  00000+0  63424-3 0  9999",
        "tle_line2": "2 66906  51.6303 155.8936 0003912 190.7132 169.3774 15.50350034  1196"
      },
      "geometry": {
        "type": "Point",
        "coordinates": [
          -98.39059242711568,
          50.09183975562173
        ]
      }
    },
    {
      "type": "Feature",
      "properties": {
        "norad_id": 66907,
        "name": "1998-067XT",
        "group": "stations",
        "lat": 46.96618497090969,
        "lon": -85.15590797919168,
        "alt_km": 407.91170978349237,
        "timestamp": "2025-12-10T14:53:35.962229+00:00",
        "meta_object_name": "1998-067XT",
        "meta_object_id": "1998-067XT",
        "meta_epoch": "2025-12-09T12:07:37.114752",
        "meta_mean_motion": 15.50864429,
        "meta_eccentricity": 0.00048036,
        "meta_inclination": 51.6307,
        "meta_ra_of_asc_node": 158.4423,
        "meta_arg_of_pericenter": 208.5081,
        "meta_mean_anomaly": 151.5646,
        "meta_ephemeris_type": 0,
        "meta_classification_type": "U",
        "meta_norad_cat_id": 66907,
        "meta_element_set_no": 999,
        "meta_rev_at_epoch": 111,
        "meta_bstar": 0.0012921241,
        "meta_mean_motion_dot": 0.00076342,
        "meta_mean_motion_ddot": 0,
        "tle_line1": "1 66907U 98067XT  25343.50529068  .00076342  00000+0  12921-2 0  9998",
        "tle_line2": "2 66907  51.6307 158.4423 0004803 208.5081 151.5646 15.50864429  1113"
      },
      "geometry": {
        "type": "Point",
        "coordinates": [
          -85.15590797919168,
          46.96618497090969
        ]
      }
    },
    {
      "type": "Feature",
      "properties": {
        "norad_id": 66908,
        "name": "1998-067XU",
        "group": "stations",
        "lat": 46.39427141390186,
        "lon": -83.38351611101514,
        "alt_km": 407.70398319703054,
        "timestamp": "2025-12-10T14:53:35.962239+00:00",
        "meta_object_name": "1998-067XU",
        "meta_object_id": "1998-067XU",
        "meta_epoch": "2025-12-09T22:56:49.308000",
        "meta_mean_motion": 15.50986187,
        "meta_eccentricity": 0.00049973,
        "meta_inclination": 51.6304,
        "meta_ra_of_asc_node": 156.202,
        "meta_arg_of_pericenter": 209.1255,
        "meta_mean_anomaly": 150.9456,
        "meta_ephemeris_type": 0,
        "meta_classification_type": "U",
        "meta_norad_cat_id": 66908,
        "meta_element_set_no": 999,
        "meta_rev_at_epoch": 118,
        "meta_bstar": 0.0013760637,
        "meta_mean_motion_dot": 0.00081745,
        "meta_mean_motion_ddot": 0,
        "tle_line1": "1 66908U 98067XU  25343.95612625  .00081745  00000+0  13761-2 0  9996",
        "tle_line2": "2 66908  51.6304 156.2020 0004997 209.1255 150.9456 15.50986187  1189"
      },
      "geometry": {
        "type": "Point",
        "coordinates": [
          -83.38351611101514,
          46.39427141390186
        ]
      }
    }
  ]
}